DMSP 5D-3 F16 (USA 172) 
1 28054U 03048A   26130.82627514 -.00000004  00000+0  21773-4 0  9999
2 28054  98.9914 154.4032 0005970 249.5377 225.5838 14.14479419164208
METEOSAT-9 (MSG-2)      
1 28912U 05049B   26130.83446147  .00000137  00000+0  00000+0 0  9998
2 28912   9.2780  54.5268 0001141 346.6758 173.5501  1.00267986  6621
DMSP 5D-3 F17 (USA 191) 
1 29522U 06050A   26130.83400641  .00000052  00000+0  49164-4 0  9993
2 29522  98.7388 138.1676 0010500 156.3390 203.8269 14.14986484  7141
FENGYUN 3A              
1 32958U 08026A   26130.83188169  .00000039  00000+0  39111-4 0  9999
2 32958  98.6868  72.3679 0007750 231.4963 128.5519 14.19563169930104
GOES 14                 
1 35491U 09033A   26130.78629035 -.00000106  00000+0  00000+0 0  9995
2 35491   1.5933  83.4673 0001864 334.8617 256.1534  1.00118008  6211
DMSP 5D-3 F18 (USA 210) 
1 35951U 09057A   26130.87349387  .00000199  00000+0  12616-3 0  9992
2 35951  98.9025 111.7281 0011170   3.5050 356.6200 14.14875038854316
EWS-G2 (GOES 15)        
1 36411U 10008A   26130.80526909  .00000032  00000+0  00000+0 0  9998
2 36411   1.1767  83.4967 0004694  28.3800 109.9501  1.00273589 59262
COMS 1                  
1 36744U 10032A   26130.87787487 -.00000331  00000+0  00000+0 0  9994
2 36744   4.7103  75.8433 0000987 339.0600 257.9673  1.00272052 50717
FENGYUN 3B              
1 37214U 10059A   26130.82833150 -.00000063  00000+0 -93419-5 0  9995
2 37214  98.9651 176.6788 0021085 294.0625 155.3354 14.14832705802140
SUOMI NPP               
1 37849U 11061A   26130.84184613  .00000038  00000+0  39043-4 0  9990
2 37849  98.7938  71.9770 0002842  78.1622 281.9873 14.19509259753143
METEOSAT-10 (MSG-3)     
1 38552U 12035B   26130.61138882  .00000005  00000+0  00000+0 0  9996
2 38552   4.5829  61.1747 0001924 324.5706  62.8381  1.00270729 50485
METOP-B                 
1 38771U 12049A   26130.81168572  .00000060  00000+0  47293-4 0  9996
2 38771  98.6530 183.0514 0003522  96.3866 263.7713 14.21422122707959
INSAT-3D                
1 39216U 13038B   26130.85091829 -.00000328  00000+0  00000+0 0  9992
2 39216   1.8291  82.9891 0001067 292.3298 289.1836  1.00270285 46709
FENGYUN 3C              
1 39260U 13052A   26130.86939273  .00000050  00000+0  46646-4 0  9994
2 39260  98.4962 106.4631 0015562 127.8587 232.3998 14.15746238653289
METEOR-M 2              
1 40069U 14037A   26130.90911175  .00000184  00000+0  10332-3 0  9993
2 40069  98.5100 107.9732 0006423 135.7732 224.3960 14.21451734614027
HIMAWARI-8              
1 40267U 14060A   26130.85317162  .00000000  00000+0  00000+0 0  9993
2 40267   0.0176  69.1481 0000834  10.9763 236.3380  1.00267463 42386
FENGYUN 2G              
1 40367U 14090A   26130.77378338 -.00000289  00000+0  00000+0 0  9990
2 40367   5.5445  73.2546 0002623 133.5324  40.0647  1.00267312 41622
METEOSAT-11 (MSG-4)     
1 40732U 15034A   26130.82719721  .00000073  00000+0  00000+0 0  9996
2 40732   3.1094  71.3062 0001637 350.6931 113.7135  1.00268581  6848
ELEKTRO-L 2             
1 41105U 15074A   26130.67985196 -.00000104  00000+0  00000+0 0  9995
2 41105   6.6004  70.9731 0001642 275.6603 112.0794  1.00273234 38139
INSAT-3DR               
1 41752U 16054A   26130.87211067 -.00000067  00000+0  00000+0 0  9991
2 41752   0.1486  87.2936 0011091 192.7556 336.5963  1.00271192 35446
HIMAWARI-9              
1 41836U 16064A   26130.85317162 -.00000264  00000+0  00000+0 0  9995
2 41836   0.0423 104.2686 0000953 320.8932 251.4211  1.00274007 34839
GOES 16                 
1 41866U 16071A   26130.66199852 -.00000081  00000+0  00000+0 0  9996
2 41866   0.2462  85.6490 0001001 271.7035   4.7352  1.00272409 34722
FENGYUN 4A              
1 41882U 16077A   26130.84987826 -.00000345  00000+0  00000+0 0  9999
2 41882   2.2278  80.6629 0008132 143.8558  73.8574  1.00272573 34553
CYGFM05                 
1 41884U 16078A   26130.44910317  .00014971  00000+0  21596-3 0  9995
2 41884  34.9562 150.1556 0007499 165.2394 194.8550 15.55031125522872
CYGFM04                 
1 41885U 16078B   26130.65941458  .00020275  00000+0  24757-3 0  9995
2 41885  34.9319 118.2510 0007785 209.6105 150.4179 15.59427425523130
CYGFM02                 
1 41886U 16078C   26130.66128578  .00023248  00000+0  25796-3 0  9994
2 41886  34.9403 113.7624 0008960 210.2132 149.8077 15.61878934523299
CYGFM01                 
1 41887U 16078D   26130.45358568  .00015307  00000+0  21576-3 0  9995
2 41887  34.9392 151.4784 0007097 159.3638 200.7373 15.55654802522820
CYGFM08                 
1 41888U 16078E   26130.34640307  .00017544  00000+0  22564-3 0  9992
2 41888  34.9425 132.7108 0009120 187.3550 172.7042 15.58065837523068
CYGFM07                 
1 41890U 16078G   26130.37196333  .00017050  00000+0  21865-3 0  9998
2 41890  34.9441 120.9148 0008084 205.7694 154.2628 15.58158781523093
CYGFM03                 
1 41891U 16078H   26130.66322014  .00018693  00000+0  23956-3 0  9995
2 41891  34.9397 120.9311 0007242 198.2846 161.7619 15.58171348523116
FENGYUN 3D              
1 43010U 17072A   26130.86608308 -.00000333  00000+0 -13542-3 0  9994
2 43010  99.0111 104.6192 0002100 125.7267 234.4104 14.19730250439698
NOAA 20 (JPSS-1)        
1 43013U 17073A   26130.78452625  .00000043  00000+0  41312-4 0  9991
2 43013  98.7757  70.5828 0001805  53.1790 306.9552 14.19550625439166
GOES 17                 
1 43226U 18022A   26130.80752380 -.00000172  00000+0  00000+0 0  9994
2 43226   0.8418  86.2254 0000704 326.8012  16.8049  1.00272368 30044
FENGYUN 2H              
1 43491U 18050A   26130.84104817 -.00000119  00000+0  00000+0 0  9990
2 43491   2.9350  79.4891 0001270 139.7135  31.6140  1.00273974 29064
METOP-C                 
1 43689U 18087A   26130.83297051  .00000064  00000+0  48978-4 0  9990
2 43689  98.6664 191.1147 0000243  89.5486 270.5720 14.21501661389521
GEO-KOMPSAT-2A          
1 43823U 18100A   26130.85074494 -.00000334  00000+0  00000+0 0  9992
2 43823   0.0474  94.7389 0002148 339.2312 229.2218  1.00270884 27257
METEOR-M2 2             
1 44387U 19038A   26130.87357029  .00000024  00000+0  30050-4 0  9997
2 44387  98.9141 117.6119 0002213 106.0408 254.1014 14.24355314355982
ARKTIKA-M 1             
1 47719U 21016A   26129.11511190 -.00000078  00000+0  00000+0 0  9991
2 47719  63.2307  63.2755 7273343 269.7576  14.8669  2.00634688 38002
FENGYUN 3E              
1 49008U 21062A   26130.85417163 -.00000013  00000+0  14671-4 0  9996
2 49008  98.7507 134.6786 0001644 153.5557 206.5703 14.19900531251284
GOES 18                 
1 51850U 22021A   26130.72676405  .00000000  00000+0  00000+0 0  9993
2 51850   0.0148  69.2665 0000524  53.2483 230.6492  1.00270950  6213
NOAA 21 (JPSS-2)        
1 54234U 22150A   26130.81870041  .00000015  00000+0  27578-4 0  9997
2 54234  98.7045  70.2386 0001020 346.0583  14.0565 14.19558570181243
METEOSAT-12 (MTG-I1)    
1 54743U 22170C   26130.82520388  .00000002  00000+0  00000+0 0  9993
2 54743   0.7393  24.5377 0000862 358.4247 142.3736  1.00272189 12609
TIANMU-1 03             
1 55973U 23039A   26130.85034461  .00010360  00000+0  21264-3 0  9996
2 55973  97.5227 303.3936 0002381 206.6885 153.4242 15.46223890175069
TIANMU-1 04             
1 55974U 23039B   26130.85375012  .00010173  00000+0  20486-3 0  9994
2 55974  97.5164 302.5494 0003076 207.4436 152.6651 15.46784251175072
TIANMU-1 05             
1 55975U 23039C   26130.89412770  .00009940  00000+0  20456-3 0  9999
2 55975  97.5210 303.0673 0001755 234.1124 125.9962 15.46159864175055
TIANMU-1 06             
1 55976U 23039D   26130.85501605  .00010212  00000+0  20623-3 0  9992
2 55976  97.5217 303.6258 0002138 228.7337 131.3728 15.46704462175072
FENGYUN 3G              
1 56232U 23055A   26130.60483778  .00014982  00000+0  24168-3 0  9995
2 56232  49.9919 179.8969 0006053  23.1759 336.9480 15.53064299174167
METEOR-M2 3             
1 57166U 23091A   26130.85941395 -.00000018  00000+0  10834-4 0  9995
2 57166  98.6111 186.5961 0002765 281.9570  78.1299 14.24043503149209
TIANMU-1 07             
1 57399U 23101A   26130.81084073  .00004056  00000+0  14475-3 0  9991
2 57399  97.2621 182.3446 0000593 231.1581 128.9606 15.29429727155931
TIANMU-1 08             
1 57400U 23101B   26130.84350374  .00003629  00000+0  12966-3 0  9995
2 57400  97.2610 182.1515 0002455 228.5149 131.5882 15.29457367155933
TIANMU-1 09             
1 57401U 23101C   26130.82711616  .00004213  00000+0  15004-3 0  9990
2 57401  97.2568 181.5717 0000972 258.5926 101.5205 15.29471949155939
TIANMU-1 10             
1 57402U 23101D   26130.85948354  .00004150  00000+0  14770-3 0  9994
2 57402  97.2647 182.6156 0002385 254.3148 105.7829 15.29507131155938
FENGYUN 3F              
1 57490U 23111A   26130.83891855  .00000011  00000+0  25718-4 0  9990
2 57490  98.6860 201.5405 0001187 115.7984 244.3315 14.19932398143563
ARKTIKA-M 2             
1 58584U 23198A   26127.88273130  .00000170  00000+0  00000+0 0  9999
2 58584  63.2197 158.8549 6891510 267.5523  18.8212  2.00594956 17516
TIANMU-1 11             
1 58645U 23205A   26130.82717565  .00003553  00000+0  13828-3 0  9993
2 58645  97.3475 152.9786 0010494 129.7627 230.4538 15.26603112131822
TIANMU-1 12             
1 58646U 23205B   26130.86206436  .00003843  00000+0  14961-3 0  9999
2 58646  97.3463 152.7766 0009045 114.9202 245.2978 15.26555356131818
TIANMU-1 13             
1 58647U 23205C   26130.82528439  .00003777  00000+0  14684-3 0  9994
2 58647  97.3492 153.0070 0009492 100.2166 260.0144 15.26610477131801
TIANMU-1 14             
1 58648U 23205D   26130.81146935  .00003829  00000+0  14948-3 0  9992
2 58648  97.3427 152.2049 0009849 102.6454 257.5886 15.26456208131803
TIANMU-1 19             
1 58660U 23208A   26130.84285198  .00005484  00000+0  18565-3 0  9995
2 58660  97.4458 246.9788 0006445  91.9063 268.2916 15.30998000131616
TIANMU-1 20             
1 58661U 23208B   26130.84437094  .00005512  00000+0  17974-3 0  9995
2 58661  97.4398 247.5772 0008602  98.0642 262.1576 15.32188604131706
TIANMU-1 21             
1 58662U 23208C   26130.88762486  .00006626  00000+0  20114-3 0  9993
2 58662  97.4456 250.1435 0008543  92.3265 267.8956 15.34400638131845
TIANMU-1 22             
1 58663U 23208D   26130.87797881  .00005195  00000+0  17862-3 0  9996
2 58663  97.4455 246.9804 0005212 109.8127 250.3676 15.30523885131627
TIANMU-1 15             
1 58700U 24004A   26130.87306428  .00003940  00000+0  15308-3 0  9995
2 58700  97.4680 317.0671 0008459 116.0373 244.1737 15.26628987130082
TIANMU-1 16             
1 58701U 24004B   26130.85561115  .00004117  00000+0  16117-3 0  9996
2 58701  97.4625 316.3286 0007413 118.3342 241.8645 15.26356907130088
TIANMU-1 17             
1 58702U 24004C   26130.84106845  .00003800  00000+0  14899-3 0  9994
2 58702  97.4654 316.7850 0006847 122.0693 238.1211 15.26358038130077
TIANMU-1 18             
1 58703U 24004D   26130.82382206  .00003732  00000+0  14528-3 0  9993
2 58703  97.4672 316.9997 0005504 116.1977 243.9828 15.26621846130078
INSAT-3DS               
1 58990U 24033A   26130.83218449 -.00000146  00000+0  00000+0 0  9994
2 58990   0.0691 257.6543 0001522 155.2946 197.3567  1.00271986 46690
METEOR-M2 4             
1 59051U 24039A   26130.90210758  .00000018  00000+0  27683-4 0  9990
2 59051  98.6989  90.6741 0005936 280.3096  79.7413 14.22425681113965
GOES 19                 
1 60133U 24119A   26130.52523671  .00000000  00000+0  00000+0 0  9991
2 60133   0.0132  85.5737 0000609  28.0640 228.5818  1.00270490  6587
FENGYUN 3H              
1 65815U 25219A   26130.83479632  .00000032  00000+0  35412-4 0  9991
2 65815  98.6754  72.3342 0001320 104.5671 255.5652 14.19913670 32081
